ONEWEB-0674             
1 55833U 23029AP  25131.88761341  .00000259  00000+0  66496-3 0  9999
2 55833  87.9071   9.5605 0001783  64.9889 295.1426 13.14501275107372
ONEWEB-0675             
1 55834U 23029AQ  25131.75730336  .00000011  00000+0 -50250-5 0  9996
2 55834  87.9259  24.7920 0001956  89.5589 270.5768 13.19727903105975
ONEWEB-0720             
1 55835U 23029AR  25131.74941067  .00000089  00000+0  18974-3 0  9990
2 55835  87.9257  24.7903 0001389  80.1625 279.9665 13.19727082106588
ONEWEB-0537             
1 56046U 23043A   25131.93065346  .00000057  00000+0  11457-3 0  9993
2 56046  87.9018 308.7398 0001980  97.2402 262.8954 13.16593316106164
ONEWEB-0538             
1 56047U 23043B   25131.77232056  .00000040  00000+0  70934-4 0  9998
2 56047  87.9012 308.7932 0001744 103.0269 257.1056 13.16592231106152
ONEWEB-0546             
1 56048U 23043C   25131.75966177  .00000073  00000+0  15838-3 0  9992
2 56048  87.9023 308.7659 0002499  95.7922 264.3493 13.16593815106145
ONEWEB-0547             
1 56049U 23043D   25131.83140633 -.00000035  00000+0 -11694-3 0  9999
2 56049  87.9237 324.0252 0001693  95.3871 264.7456 13.21823719105201
ONEWEB-0548             
1 56050U 23043E   25131.93698521  .00000128  00000+0  29991-3 0  9996
2 56050  87.9014 308.7702 0001751  76.0640 284.0685 13.16593454106169
